{
  "type": "FeatureCollection",
  "features": [
    {
      "type": "Feature",
      "properties": {
        "norad_id": 25590,
        "name": "COSMOS 2361",
        "group": "musson",
        "lat": -80.24362525876452,
        "lon": -58.34854371856215,
        "alt_km": 973.2923246496948,
        "timestamp": "2025-12-07T16:44:04.181006+00:00",
        "meta_object_name": "COSMOS 2361",
        "meta_object_id": "1998-076A",
        "meta_epoch": "2025-12-06T20:28:15.021696",
        "meta_mean_motion": 13.73216536,
        "meta_eccentricity": 0.00300922,
        "meta_inclination": 82.9339,
        "meta_ra_of_asc_node": 348.4408,
        "meta_arg_of_pericenter": 282.7006,
        "meta_mean_anomaly": 142.4657,
        "meta_ephemeris_type": 0,
        "meta_classification_type": "U",
        "meta_norad_cat_id": 25590,
        "meta_element_set_no": 999,
        "meta_rev_at_epoch": 35030,
        "meta_bstar": 8.7486343e-05,
        "meta_mean_motion_dot": 9.6e-07,
        "meta_mean_motion_ddot": 0,
        "tle_line1": "1 25590U 98076A   25340.85295164  .00000096  00000+0  87486-4 0  9996",
        "tle_line2": "2 25590  82.9339 348.4408 0030092 282.7006 142.4657 13.73216536350304"
      },
      "geometry": {
        "type": "Point",
        "coordinates": [
          -58.34854371856215,
          -80.24362525876452
        ]
      }
    },
    {
      "type": "Feature",
      "properties": {
        "norad_id": 26818,
        "name": "COSMOS 2378",
        "group": "musson",
        "lat": -26.905274663053948,
        "lon": -0.14751445211870667,
        "alt_km": 999.8548407500684,
        "timestamp": "2025-12-07T16:44:04.181028+00:00",
        "meta_object_name": "COSMOS 2378",
        "meta_object_id": "2001-023A",
        "meta_epoch": "2025-12-06T21:56:25.725696",
        "meta_mean_motion": 13.74141293,
        "meta_eccentricity": 0.00320867,
        "meta_inclination": 82.9275,
        "meta_ra_of_asc_node": 4.0447,
        "meta_arg_of_pericenter": 221.4372,
        "meta_mean_anomaly": 199.5404,
        "meta_ephemeris_type": 0,
        "meta_classification_type": "U",
        "meta_norad_cat_id": 26818,
        "meta_element_set_no": 999,
        "meta_rev_at_epoch": 22843,
        "meta_bstar": 7.3000779e-05,
        "meta_mean_motion_dot": 8.4e-07,
        "meta_mean_motion_ddot": 0,
        "tle_line1": "1 26818U 01023A   25340.91418664  .00000084  00000+0  73001-4 0  9990",
        "tle_line2": "2 26818  82.9275   4.0447 0032086 221.4372 199.5404 13.74141293228435"
      },
      "geometry": {
        "type": "Point",
        "coordinates": [
          -0.14751445211870667,
          -26.905274663053948
        ]
      }
    },
    {
      "type": "Feature",
      "properties": {
        "norad_id": 27436,
        "name": "COSMOS 2389",
        "group": "musson",
        "lat": 17.992155146314275,
        "lon": 128.41472879759158,
        "alt_km": 979.6498874081335,
        "timestamp": "2025-12-07T16:44:04.181041+00:00",
        "meta_object_name": "COSMOS 2389",
        "meta_object_id": "2002-026A",
        "meta_epoch": "2025-12-06T22:45:12.555072",
        "meta_mean_motion": 13.75153814,
        "meta_eccentricity": 0.0047736,
        "meta_inclination": 82.9497,
        "meta_ra_of_asc_node": 311.2726,
        "meta_arg_of_pericenter": 76.4798,
        "meta_mean_anomaly": 337.8266,
        "meta_ephemeris_type": 0,
        "meta_classification_type": "U",
        "meta_norad_cat_id": 27436,
        "meta_element_set_no": 999,
        "meta_rev_at_epoch": 18069,
        "meta_bstar": 8.9906083e-05,
        "meta_mean_motion_dot": 1.02e-06,
        "meta_mean_motion_ddot": 0,
        "tle_line1": "1 27436U 02026A   25340.94806198  .00000102  00000+0  89906-4 0  9999",
        "tle_line2": "2 27436  82.9497 311.2726 0047736  76.4798 337.8266 13.75153814180690"
      },
      "geometry": {
        "type": "Point",
        "coordinates": [
          128.41472879759158,
          17.992155146314275
        ]
      }
    },
    {
      "type": "Feature",
      "properties": {
        "norad_id": 27818,
        "name": "COSMOS 2398",
        "group": "musson",
        "lat": 15.459165756762399,
        "lon": 94.45252440787564,
        "alt_km": 973.155283882541,
        "timestamp": "2025-12-07T16:44:04.181053+00:00",
        "meta_object_name": "COSMOS 2398",
        "meta_object_id": "2003-023A",
        "meta_epoch": "2025-12-06T22:46:59.808576",
        "meta_mean_motion": 13.72384768,
        "meta_eccentricity": 0.00323652,
        "meta_inclination": 82.948,
        "meta_ra_of_asc_node": 276.9654,
        "meta_arg_of_pericenter": 127.3377,
        "meta_mean_anomaly": 303.4222,
        "meta_ephemeris_type": 0,
        "meta_classification_type": "U",
        "meta_norad_cat_id": 27818,
        "meta_element_set_no": 999,
        "meta_rev_at_epoch": 12737,
        "meta_bstar": 7.3272107e-05,
        "meta_mean_motion_dot": 8.3e-07,
        "meta_mean_motion_ddot": 0,
        "tle_line1": "1 27818U 03023A   25340.94930334  .00000083  00000+0  73272-4 0  9998",
        "tle_line2": "2 27818  82.9480 276.9654 0032365 127.3377 303.4222 13.72384768127372"
      },
      "geometry": {
        "type": "Point",
        "coordinates": [
          94.45252440787564,
          15.459165756762399
        ]
      }
    },
    {
      "type": "Feature",
      "properties": {
        "norad_id": 28380,
        "name": "COSMOS 2407",
        "group": "musson",
        "lat": -70.46823435214282,
        "lon": -163.75499849089718,
        "alt_km": 1007.1048640813106,
        "timestamp": "2025-12-07T16:44:04.181063+00:00",
        "meta_object_name": "COSMOS 2407",
        "meta_object_id": "2004-028A",
        "meta_epoch": "2025-12-06T21:56:46.618944",
        "meta_mean_motion": 13.76312679,
        "meta_eccentricity": 0.00404786,
        "meta_inclination": 82.9615,
        "meta_ra_of_asc_node": 217.2054,
        "meta_arg_of_pericenter": 70.6389,
        "meta_mean_anomaly": 301.3845,
        "meta_ephemeris_type": 0,
        "meta_classification_type": "U",
        "meta_norad_cat_id": 28380,
        "meta_element_set_no": 999,
        "meta_rev_at_epoch": 7343,
        "meta_bstar": 0.00010163308,
        "meta_mean_motion_dot": 1.15e-06,
        "meta_mean_motion_ddot": 0,
        "tle_line1": "1 28380U 04028A   25340.91442846  .00000115  00000+0  10163-3 0  9997",
        "tle_line2": "2 28380  82.9615 217.2054 0040478  70.6389 301.3845 13.76312679 73437"
      },
      "geometry": {
        "type": "Point",
        "coordinates": [
          -163.75499849089718,
          -70.46823435214282
        ]
      }
    },
    {
      "type": "Feature",
      "properties": {
        "norad_id": 28521,
        "name": "COSMOS 2414",
        "group": "musson",
        "lat": -18.086160780045947,
        "lon": -173.84347160289204,
        "alt_km": 970.298005286586,
        "timestamp": "2025-12-07T16:44:04.181074+00:00",
        "meta_object_name": "COSMOS 2414",
        "meta_object_id": "2005-002A",
        "meta_epoch": "2025-12-06T16:35:58.790688",
        "meta_mean_motion": 13.87901824,
        "meta_eccentricity": 0.00405306,
        "meta_inclination": 82.9498,
        "meta_ra_of_asc_node": 189.2332,
        "meta_arg_of_pericenter": 156.6893,
        "meta_mean_anomaly": 203.612,
        "meta_ephemeris_type": 0,
        "meta_classification_type": "U",
        "meta_norad_cat_id": 28521,
        "meta_element_set_no": 999,
        "meta_rev_at_epoch": 5711,
        "meta_bstar": 9.2076836e-05,
        "meta_mean_motion_dot": 1.26e-06,
        "meta_mean_motion_ddot": 0,
        "tle_line1": "1 28521U 05002A   25340.69165267  .00000126  00000+0  92077-4 0  9998",
        "tle_line2": "2 28521  82.9498 189.2332 0040530 156.6893 203.6120 13.87901824 57119"
      },
      "geometry": {
        "type": "Point",
        "coordinates": [
          -173.84347160289204,
          -18.086160780045947
        ]
      }
    },
    {
      "type": "Feature",
      "properties": {
        "norad_id": 32052,
        "name": "COSMOS 2429",
        "group": "musson",
        "lat": -13.249986966918327,
        "lon": -14.635733834766947,
        "alt_km": 973.1122590560726,
        "timestamp": "2025-12-07T16:44:04.181085+00:00",
        "meta_object_name": "COSMOS 2429",
        "meta_object_id": "2007-038A",
        "meta_epoch": "2025-12-06T18:05:52.043712",
        "meta_mean_motion": 13.75148552,
        "meta_eccentricity": 0.00395057,
        "meta_inclination": 82.9803,
        "meta_ra_of_asc_node": 347.7218,
        "meta_arg_of_pericenter": 54.1616,
        "meta_mean_anomaly": 306.3199,
        "meta_ephemeris_type": 0,
        "meta_classification_type": "U",
        "meta_norad_cat_id": 32052,
        "meta_element_set_no": 999,
        "meta_rev_at_epoch": 91520,
        "meta_bstar": 7.4525821e-05,
        "meta_mean_motion_dot": 8.7e-07,
        "meta_mean_motion_ddot": 0,
        "tle_line1": "1 32052U 07038A   25340.75407458  .00000087  00000+0  74526-4 0  9996",
        "tle_line2": "2 32052  82.9803 347.7218 0039505  54.1616 306.3199 13.75148552915200"
      },
      "geometry": {
        "type": "Point",
        "coordinates": [
          -14.635733834766947,
          -13.249986966918327
        ]
      }
    },
    {
      "type": "Feature",
      "properties": {
        "norad_id": 35635,
        "name": "COSMOS 2454",
        "group": "musson",
        "lat": -4.882489984982402,
        "lon": 171.86216902816585,
        "alt_km": 932.8821102726351,
        "timestamp": "2025-12-07T16:44:04.181096+00:00",
        "meta_object_name": "COSMOS 2454",
        "meta_object_id": "2009-039A",
        "meta_epoch": "2025-12-06T22:17:21.427872",
        "meta_mean_motion": 13.89927593,
        "meta_eccentricity": 0.00204951,
        "meta_inclination": 82.9557,
        "meta_ra_of_asc_node": 173.05,
        "meta_arg_of_pericenter": 89.2813,
        "meta_mean_anomaly": 22.7242,
        "meta_ephemeris_type": 0,
        "meta_classification_type": "U",
        "meta_norad_cat_id": 35635,
        "meta_element_set_no": 999,
        "meta_rev_at_epoch": 83069,
        "meta_bstar": 7.896036e-05,
        "meta_mean_motion_dot": 1.13e-06,
        "meta_mean_motion_ddot": 0,
        "tle_line1": "1 35635U 09039A   25340.92872023  .00000113  00000+0  78960-4 0  9998",
        "tle_line2": "2 35635  82.9557 173.0500 0020495  89.2813  22.7242 13.89927593830698"
      },
      "geometry": {
        "type": "Point",
        "coordinates": [
          171.86216902816585,
          -4.882489984982402
        ]
      }
    },
    {
      "type": "Feature",
      "properties": {
        "norad_id": 36519,
        "name": "COSMOS 2463",
        "group": "musson",
        "lat": 7.246365718234753,
        "lon": 31.318180172658487,
        "alt_km": 984.5131641757534,
        "timestamp": "2025-12-07T16:44:04.181106+00:00",
        "meta_object_name": "COSMOS 2463",
        "meta_object_id": "2010-017A",
        "meta_epoch": "2025-12-06T22:17:11.124672",
        "meta_mean_motion": 13.71648343,
        "meta_eccentricity": 0.00349564,
        "meta_inclination": 82.9617,
        "meta_ra_of_asc_node": 30.9827,
        "meta_arg_of_pericenter": 304.7523,
        "meta_mean_anomaly": 228.7937,
        "meta_ephemeris_type": 0,
        "meta_classification_type": "U",
        "meta_norad_cat_id": 36519,
        "meta_element_set_no": 999,
        "meta_rev_at_epoch": 78157,
        "meta_bstar": 8.2092979e-05,
        "meta_mean_motion_dot": 8.9e-07,
        "meta_mean_motion_ddot": 0,
        "tle_line1": "1 36519U 10017A   25340.92860098  .00000089  00000+0  82093-4 0  9991",
        "tle_line2": "2 36519  82.9617  30.9827 0034956 304.7523 228.7937 13.71648343781575"
      },
      "geometry": {
        "type": "Point",
        "coordinates": [
          31.318180172658487,
          7.246365718234753
        ]
      }
    }
  ]
}